#aV2024  1 16  0  0  0.00000000     288 DD+AD WGS84 FIT  NGA
## 2297 172800.00000000   300.00000000 60325 0.0000000000000
+   31     1  2  3  4  5  6  7  8  9 10 11 12 13 14 15 16 17
+         18 19 20 21 22 23 24 25 26 28 29 30 31 32  0  0  0
+          0  0  0  0  0  0  0  0  0  0  0  0  0  0  0  0  0
+          0  0  0  0  0  0  0  0  0  0  0  0  0  0  0  0  0
+          0  0  0  0  0  0  0  0  0  0  0  0  0  0  0  0  0
++         2  2  2  2  2  2  2  2  2  2  2  2  2  2  2  2  2
++         2  2  2  2  2  2  2  2  2  2  2  2  2  2  0  0  0
++         0  0  0  0  0  0  0  0  0  0  0  0  0  0  0  0  0
++         0  0  0  0  0  0  0  0  0  0  0  0  0  0  0  0  0
++         0  0  0  0  0  0  0  0  0  0  0  0  0  0  0  0  0
%c cc cc ccc ccc cccc cccc cccc cccc ccccc ccccc ccccc ccccc
%c cc cc ccc ccc cccc cccc cccc cccc ccccc ccccc ccccc ccccc
%f  0.0000000  0.000000000  0.00000000000  0.000000000000000
%f  0.0000000  0.000000000  0.00000000000  0.000000000000000
%i    0    0    0    0      0      0      0      0         0
%i    0    0    0    0      0      0      0      0         0
/*      NGA, ST. LOUIS,MO.                                  
/*   EPHEMERIS COMPUTED FROM 2 DAYS OF DATA                 
/*   EPOCHA v9 SMOOTHER                                     
/*   G2296 IERS2010 SATIGS SATAPC                           
*  2024  1 16  7 25  0.00000000
P  1  -9198.613321  20268.858058 -14580.374757    166.247881                    
V  1 -14739.305394  10422.048257  24703.834415      0.010814                    
P  2 -14292.681154  21159.639971  -6347.099758   -500.150776                    
V  2  -8079.079956   4386.795070  30663.281853      0.056465                    
P  3  -4695.998488  14042.768173 -22193.158060    129.454860                    
V  3 -26270.657811  -8996.480481    -23.129638      0.258770                    
P  4  -2404.593761  24719.377989  -9208.617442    267.323876                    
V  4  -4435.941548 -11176.200383 -28934.838766      0.097408                    
P  5  16758.396963  -8503.262422  18632.634695   -158.146952                    
V  5  22679.199974   7863.458501 -16562.581232     -0.014196                    
P  6  19470.942804  -1122.306047 -18005.178799    442.969778                    
V  6 -16683.285193  15728.681330 -18846.270277     -0.133034                    
P  7   4990.969700  15769.985209  21178.310027    -38.512647                    
V  7 -20106.669221  16386.105299  -8112.882105     -0.093289                    
P  8  -7304.473441  19379.073571  16293.882450   -162.335231                    
V  8  -6973.148987 -19980.796659  20942.883941     -0.018477                    
P  9   7416.760111  25352.693355   2366.447032     60.433658                    
V  9  -2196.200807   3685.520508 -31540.423652      0.122415                    
P 10 -23979.122649 -11107.504949   4268.890484    -69.528652                    
V 10   5414.701198    -77.850322  31404.894942     -0.014708                    
P 11  22772.724719 -10108.028652  -9106.751681   -541.649746                    
V 11  -7541.500314   9160.422439 -28992.575282     -0.139592                    
P 12   5871.116704 -14123.550402 -21999.778098   -468.368832                    
V 12  25132.771366  10518.964945     23.235665     -0.038196                    
P 13  13272.094386 -10405.191535  20259.434268    616.333855                    
V 13   2573.126146  26106.278876  11818.497541      0.037288                    
P 14  21762.956105  13585.734740   7256.266765    299.981992                    
V 14  -9604.224379   -417.841633  29494.800957      0.102430                    
P 15   5099.855459 -20255.357220  15795.023243    117.737946                    
V 15   9696.791435  18954.514528  20753.985818      0.038930                    
P 16 -22061.554746   1505.003101  14712.746491   -383.133865                    
V 16 -16736.002156  -9332.460247 -23164.275541      0.077768                    
P 17  12397.317593  18172.435534 -14346.872452    719.755286                    
V 17    510.041272  19110.708821  24080.007817     -0.009051                    
P 18  -5419.612700 -14567.043116  21527.129632   -533.251310                    
V 18  21175.166815 -17219.057088  -6503.383203     -0.091674                    
P 19  14774.795756   9528.742617 -20202.364373    427.230186                    
V 19   1522.802389  25070.894670  12713.619644      0.052754                    
P 20  25116.720682  -2039.180795   8172.822330    391.287910                    
V 20   9784.932432   4536.578410 -29314.571330     -0.018970                    
P 21 -16862.410144  19683.211839  -1909.637009    138.243369                    
V 21  -4774.441695   -271.213726  32296.720640     -0.012326                    
P 22  24102.775453  10766.812516    134.153553     47.421922                    
V 22   -911.577466   2914.786532  31977.916070     -0.064891                    
P 23 -15761.307559 -15402.782120  14981.976603    136.345257                    
V 23  18506.034684   4043.833400  23473.923352      0.075187                    
P 24  14121.330106 -21509.126723  -6042.044043   -414.723411                    
V 24   7767.752801  -2682.873275  30126.892820     -0.071004                    
P 25  -7230.349870 -16963.133213 -19546.187999    485.424740                    
V 25  23261.225411   6221.084020 -13979.535829      0.013270                    
P 26 -26078.720901  -2677.608426   5198.620106    199.860751                    
V 26  -5705.793279  -4896.942824 -29936.039993     -0.035552                    
P 28 -18169.199477  -1447.821619 -19339.445578   -100.247713                    
V 28  16963.465496 -17737.803866 -14631.260968     -0.114494                    
P 29  -4194.345490 -26128.883814   1447.060395   -608.617763                    
V 29   2248.065263  -2186.792434 -32032.092775      0.005179                    
P 30  14556.955653   7818.098323  20959.551169   -444.839345                    
V 30 -19450.037260  17839.073724   6627.488912      0.046702                    
P 31 -22342.945128   6320.456994 -13466.452138   -227.333504                    
V 31  11396.786650 -12261.541375 -24654.144280     -0.002590                    
P 32 -14829.830583 -14505.299526 -16510.679022   -605.415984                    
V 32  -2665.030047 -21154.640715  20529.441408     -0.028124                    
EOF
